STARLINK-37733          
1 69329U 26122A   26178.35634745  .00051372  00000+0  93996-3 0  9999
2 69329  97.2847 208.0777 0001548  98.6417 261.5009 15.49192556  3746
STARLINK-37772          
1 69330U 26122B   26178.50002315 -.02372483  00000+0 -58508-1 0  9991
2 69330  97.2844 208.2559 0001838  77.6123  74.3699 15.43978244  4957
STARLINK-37768          
1 69331U 26122C   26178.51639069  .00059189  00000+0  10802-2 0  9992
2 69331  97.2845 208.1659 0000194  14.5117 345.6139 15.49231298  3764
STARLINK-37833          
1 69332U 26122D   26178.48598734  .00057693  00000+0  10540-2 0  9999
2 69332  97.2847 208.2074 0001159  88.4434 271.6950 15.49209430  3765
STARLINK-37818          
1 69333U 26122E   26178.04210372  .00047008  00000+0  85971-3 0  9991
2 69333  97.2852 207.7393 0001200  93.6914 266.4475 15.49226743  3690
STARLINK-37868          
1 69334U 26122F   26178.50002315 -.02262844  00000+0 -58641-1 0  9992
2 69334  97.2851 208.2751 0001740  81.8650 116.1660 15.42348933  5002
STARLINK-37877          
1 69335U 26122G   26178.51862255  .00041654  00000+0  76271-3 0  9992
2 69335  97.2848 208.1633 0000271  87.1006 273.0276 15.49219161  3763
STARLINK-37791          
1 69336U 26122H   26178.35609696  .00077981  00000+0  14202-2 0  9990
2 69336  97.2846 208.0785 0001662 102.4750 257.6687 15.49210921  3748
STARLINK-37765          
1 69337U 26122J   26178.50002315 -.02952136  00000+0 -92350-1 0  9990
2 69337  97.2840 208.3186 0001331  77.0930 213.2691 15.37041800  5055
STARLINK-37788          
1 69338U 26122K   26178.52055362  .00047455  00000+0  86794-3 0  9995
2 69338  97.2852 208.1608 0001331 276.1874  83.9225 15.49222139  3765
STARLINK-37743          
1 69339U 26122L   26178.36112845  .00053444  00000+0  97709-3 0  9991
2 69339  97.2849 208.0705 0001006  91.6061 268.5305 15.49206091  3743
STARLINK-37780          
1 69340U 26122M   26178.27641513  .00049726  00000+0  90937-3 0  9996
2 69340  97.2849 208.0333 0000993  61.7662 298.3689 15.49215492  3731
STARLINK-37781          
1 69341U 26122N   26178.52171966  .00050845  00000+0  92955-3 0  9991
2 69341  97.2852 208.1580 0001048 282.4131  77.7003 15.49218704  3767
STARLINK-37782          
1 69342U 26122P   26178.50002315 -.02124728  00000+0 -43442-1 0  9992
2 69342  97.2848 208.3101 0001323 136.1670 145.4706 15.49570738  5003
STARLINK-37776          
1 69343U 26122Q   26178.50002315 -.01501467  00000+0 -30047-1 0  9998
2 69343  97.2842 208.2998 0001083  97.2279 166.9357 15.49588143  5005
STARLINK-37786          
1 69344U 26122R   26178.48408897  .00036803  00000+0  67514-3 0  9996
2 69344  97.2846 208.2111 0000934 102.3256 257.8100 15.49191323  3761
STARLINK-37785          
1 69345U 26122S   26178.50002315  .00107865  00000+0  19617-2 0  9992
2 69345  97.2845 208.3051 0000714 100.0976 174.3883 15.49133667  5002
STARLINK-37773          
1 69346U 26122T   26178.08351646  .00047438  00000+0  86833-3 0  9994
2 69346  97.2851 207.8366 0001227 115.1352 245.0027 15.49199258  3707
STARLINK-37744          
1 69347U 26122U   26178.51765066  .00051981  00000+0  95003-3 0  9995
2 69347  97.2847 208.1655 0000531 280.4665  79.6527 15.49222467  3769
STARLINK-37775          
1 69348U 26122V   26178.53532206  .00050815  00000+0  92929-3 0  9995
2 69348  97.2844 208.2945 0001310  79.9095 280.2304 15.49209910  3776
STARLINK-37777          
1 69349U 26122W   26178.53433191  .00055212  00000+0  10088-2 0  9990
2 69349  97.2844 208.2955 0000502 109.1089 251.0217 15.49216574  3772
STARLINK-37779          
1 69350U 26122X   26178.50002315  .00118393  00000+0  21499-2 0  9997
2 69350  97.2846 208.2967 0001136 101.2955 151.8303 15.49136609  5009
STARLINK-37549          
1 69351U 26122Y   26178.04270704  .00060217  00000+0  10986-2 0  9996
2 69351  97.2852 207.7398 0002312  91.2721 268.8795 15.49233826  3691
STARLINK-37778          
1 69352U 26122Z   26178.35771303  .00079777  00000+0  14521-2 0  9992
2 69352  97.2849 208.0779 0001368  99.4635 260.6771 15.49220146  3740
STARLINK-37651          
1 69353U 26123A   26178.54042219  .03310742  00000+0  14995-1 0  9999
2 69353  53.1564 189.9226 0008070  70.0113 290.1778 15.80142264  3679
STARLINK-37652          
1 69354U 26123B   26178.28836318  .00362651  00000+0  17616-2 0  9999
2 69354  53.1558 191.1963 0001737 150.2300 209.8822 15.80912855  3632
STARLINK-37593          
1 69355U 26123C   26178.35079197 -.05318949  00000+0 -38526-1 0  9992
2 69355  53.1556 190.8730 0020022  46.8658 313.4034 15.77195524  3643
STARLINK-37597          
1 69356U 26123D   26178.50002315  .00034357  00000+0  22761-3 0  9995
2 69356  53.1587 190.2671 0001157  79.5247 342.3439 15.75215722  4867
STARLINK-37598          
1 69357U 26123E   26178.53665657  .00321547  00000+0  15659-2 0  9990
2 69357  53.1553 189.8981 0002895  37.0684 323.0538 15.80966658  3674
STARLINK-37602          
1 69358U 26123F   26178.32571101  .00320197  00000+0  19997-2 0  9997
2 69358  53.1578 191.4454 0002815 108.0414 252.0913 15.75411521  3630
