OBJECT_NAME,OBJECT_ID,EPOCH,MEAN_MOTION,ECCENTRICITY,INCLINATION,RA_OF_ASC_NODE,ARG_OF_PERICENTER,MEAN_ANOMALY,EPHEMERIS_TYPE,CLASSIFICATION_TYPE,NORAD_CAT_ID,ELEMENT_SET_NO,REV_AT_EPOCH,BSTAR,MEAN_MOTION_DOT,MEAN_MOTION_DDOT
STARLINK-37733,2026-122A,2026-06-27T08:33:08.419680,15.49192556,.0001548,97.2847,208.0777,98.6417,261.5009,0,U,69329,999,374,.93996E-3,.51372E-3,0
STARLINK-37772,2026-122B,2026-06-27T12:00:02.000160,15.43978244,.0001838,97.2844,208.2559,77.6123,74.3699,0,U,69330,999,495,-.58508E-1,-.2372483E-1,0
STARLINK-37768,2026-122C,2026-06-27T12:23:36.155616,15.49231298,.0000194,97.2845,208.1659,14.5117,345.6139,0,U,69331,999,376,.10802E-2,.59189E-3,0
STARLINK-37833,2026-122D,2026-06-27T11:39:49.306176,15.49209430,.0001159,97.2847,208.2074,88.4434,271.6950,0,U,69332,999,376,.1054E-2,.57693E-3,0
STARLINK-37818,2026-122E,2026-06-27T01:00:37.761408,15.49226743,.00012003,97.2852,207.7393,93.6914,266.4475,0,U,69333,999,369,.8597081E-3,.47008E-3,0
STARLINK-37868,2026-122F,2026-06-27T12:00:02.000160,15.42348933,.000174,97.2851,208.2751,81.8650,116.1660,0,U,69334,999,500,-.58641E-1,-.2262844E-1,0
STARLINK-37877,2026-122G,2026-06-27T12:26:48.988320,15.49219161,.0000271,97.2848,208.1633,87.1006,273.0276,0,U,69335,999,376,.76271E-3,.41654E-3,0
STARLINK-37791,2026-122H,2026-06-27T08:32:46.777344,15.49210921,.0001662,97.2846,208.0785,102.4750,257.6687,0,U,69336,999,374,.14202E-2,.77981E-3,0
STARLINK-37765,2026-122J,2026-06-27T12:00:02.000160,15.37041800,.0001331,97.2840,208.3186,77.0930,213.2691,0,U,69337,999,505,-.9235E-1,-.2952136E-1,0
STARLINK-37788,2026-122K,2026-06-27T12:29:35.832768,15.49222139,.0001331,97.2852,208.1608,276.1874,83.9225,0,U,69338,999,376,.86794E-3,.47455E-3,0
STARLINK-37743,2026-122L,2026-06-27T08:40:01.498080,15.49206091,.0001006,97.2849,208.0705,91.6061,268.5305,0,U,69339,999,374,.97709E-3,.53444E-3,0
STARLINK-37780,2026-122M,2026-06-27T06:38:02.267232,15.49215492,.0000993,97.2849,208.0333,61.7662,298.3689,0,U,69340,999,373,.90937E-3,.49726E-3,0
STARLINK-37781,2026-122N,2026-06-27T12:31:16.578624,15.49218704,.0001048,97.2852,208.1580,282.4131,77.7003,0,U,69341,999,376,.92955E-3,.50845E-3,0
STARLINK-37782,2026-122P,2026-06-27T12:00:02.000160,15.49570738,.0001323,97.2848,208.3101,136.1670,145.4706,0,U,69342,999,500,-.43442E-1,-.2124728E-1,0
STARLINK-37776,2026-122Q,2026-06-27T12:00:02.000160,15.49588143,.0001083,97.2842,208.2998,97.2279,166.9357,0,U,69343,999,500,-.30047E-1,-.1501467E-1,0
STARLINK-37786,2026-122R,2026-06-27T11:37:05.287008,15.49191323,.0000934,97.2846,208.2111,102.3256,257.8100,0,U,69344,999,376,.67514E-3,.36803E-3,0
STARLINK-37785,2026-122S,2026-06-27T12:00:02.000160,15.49133667,.0000714,97.2845,208.3051,100.0976,174.3883,0,U,69345,999,500,.19617E-2,.107865E-2,0
STARLINK-37773,2026-122T,2026-06-27T02:00:15.822144,15.49199258,.00012273,97.2851,207.8366,115.1352,245.0027,0,U,69346,999,370,.86833202E-3,.47438E-3,0
STARLINK-37744,2026-122U,2026-06-27T12:25:25.017024,15.49222467,.0000531,97.2847,208.1655,280.4665,79.6527,0,U,69347,999,376,.95003E-3,.51981E-3,0
STARLINK-37775,2026-122V,2026-06-27T12:50:51.825984,15.49209910,.000131,97.2844,208.2945,79.9095,280.2304,0,U,69348,999,377,.92929E-3,.50815E-3,0
STARLINK-37777,2026-122W,2026-06-27T12:49:26.277024,15.49216574,.0000502,97.2844,208.2955,109.1089,251.0217,0,U,69349,999,377,.10088E-2,.55212E-3,0
STARLINK-37779,2026-122X,2026-06-27T12:00:02.000160,15.49136609,.0001136,97.2846,208.2967,101.2955,151.8303,0,U,69350,999,500,.21499E-2,.118393E-2,0
STARLINK-37549,2026-122Y,2026-06-27T01:01:29.888256,15.49233826,.00023123,97.2852,207.7398,91.2721,268.8795,0,U,69351,999,369,.10986319E-2,.60217E-3,0
STARLINK-37778,2026-122Z,2026-06-27T08:35:06.405792,15.49220146,.0001368,97.2849,208.0779,99.4635,260.6771,0,U,69352,999,374,.14521E-2,.79777E-3,0
STARLINK-37651,2026-123A,2026-06-27T12:58:12.477216,15.80142264,.000807,53.1564,189.9226,70.0113,290.1778,0,U,69353,999,367,.14995E-1,.3310742E-1,0
STARLINK-37652,2026-123B,2026-06-27T06:55:14.578752,15.80912855,.0001737,53.1558,191.1963,150.2300,209.8822,0,U,69354,999,363,.17616E-2,.362651E-2,0
STARLINK-37593,2026-123C,2026-06-27T08:25:08.426208,15.77195524,.0020022,53.1556,190.8730,46.8658,313.4034,0,U,69355,999,364,-.38526E-1,-.5318949E-1,0
STARLINK-37597,2026-123D,2026-06-27T12:00:02.000160,15.75215722,.0001157,53.1587,190.2671,79.5247,342.3439,0,U,69356,999,486,.22761E-3,.34357E-3,0
STARLINK-37598,2026-123E,2026-06-27T12:52:47.127648,15.80966658,.0002895,53.1553,189.8981,37.0684,323.0538,0,U,69357,999,367,.15659E-2,.321547E-2,0
STARLINK-37602,2026-123F,2026-06-27T07:49:01.431264,15.75411521,.0002815,53.1578,191.4454,108.0414,252.0913,0,U,69358,999,363,.19997E-2,.320197E-2,0
